STARLINK-30588          
1 58062U 23158M   26068.25105251  .00004486  00000+0  17658-3 0  9994
2 58062  43.0009  29.4554 0001033 282.9067  77.1669 15.26786887133505
OTTER                   
1 62623U 25009Q   26068.72300813  .00012198  00000+0  45151-3 0  9990
2 62623  97.4065 151.3812 0003573 310.7710  49.3219 15.27809545 63722
